[{"OBJECT_NAME":"STARLINK-32805","OBJECT_ID":"2025-014F","EPOCH":"2026-03-09T22:56:23.105472","MEAN_MOTION":15.27594193,"ECCENTRICITY":0.0001272,"INCLINATION":43.0028,"RA_OF_ASC_NODE":153.277,"ARG_OF_PERICENTER":281.2805,"MEAN_ANOMALY":78.7904,"EPHEMERIS_TYPE":0,"CLASSIFICATION_TYPE":"U","NORAD_CAT_ID":62740,"ELEMENT_SET_NO":999,"REV_AT_EPOCH":6329,"BSTAR":0.0010968222,"MEAN_MOTION_DOT":0.00030056,"MEAN_MOTION_DDOT":0},{"OBJECT_NAME":"FREGAT DEB (TANK)","OBJECT_ID":"2011-001D","EPOCH":"2026-03-09T16:31:00.329664","MEAN_MOTION":13.083899,"ECCENTRICITY":0.12362877,"INCLINATION":50.3015,"RA_OF_ASC_NODE":163.3878,"ARG_OF_PERICENTER":81.6211,"MEAN_ANOMALY":292.2577,"EPHEMERIS_TYPE":0,"CLASSIFICATION_TYPE":"U","NORAD_CAT_ID":37347,"ELEMENT_SET_NO":999,"REV_AT_EPOCH":64289,"BSTAR":0.0007990264,"MEAN_MOTION_DOT":0.00029702,"MEAN_MOTION_DDOT":6.423516e-6}]
